{
  "norad_id": 48333,
  "name": "STARLINK-2518",
  "history": [
    {
      "epoch": "2026-03-28T05:17:20.311008Z",
      "apogee_km": 478.4321285462729,
      "perigee_km": 477.0184497422515,
      "latitude_deg": -5.069357343229939e-05,
      "longitude_deg": 109.91878686722364,
      "height_km": 478.50071574236557,
      "semi_major_axis_km": 6855.862289144262,
      "eccentricity": 0.0001031,
      "inclination_deg": 53.1556,
      "raan_deg": 14.8974,
      "arg_perigee_deg": 80.0444,
      "mean_anomaly_deg": 280.0672,
      "mean_motion_rev_day": 15.29359671
    },
    {
      "epoch": "2026-03-29T01:40:41.658240Z",
      "apogee_km": 478.3750915271248,
      "perigee_km": 476.96279550276086,
      "latitude_deg": -2.544559859145795e-05,
      "longitude_deg": 159.30120133092038,
      "height_km": 478.47487311286056,
      "semi_major_axis_km": 6855.805943514943,
      "eccentricity": 0.000103,
      "inclination_deg": 53.1561,
      "raan_deg": 10.9561,
      "arg_perigee_deg": 82.5346,
      "mean_anomaly_deg": 277.5771,
      "mean_motion_rev_day": 15.29378525
    }
  ]
}